#cP2013  3 31  0  0  0.00000000      96 ORBIT IGb08 HLM  IGS
## 1734      0.00000000   900.00000000 56382 0.0000000000000
+   31   G01G02G03G04G05G06G07G08G09G10G11G12G13G14G15G16G17
+        G18G19G20G21G22G23G24G25G26G27G28G29G31G32  0  0  0
+          0  0  0  0  0  0  0  0  0  0  0  0  0  0  0  0  0
+          0  0  0  0  0  0  0  0  0  0  0  0  0  0  0  0  0
+          0  0  0  0  0  0  0  0  0  0  0  0  0  0  0  0  0
++         2  2  2  2  2  2  2  2  2  2  2  2  2  2  2  2  2
++         2  2  2  2  2  2  2  2  2  0  2  2  2  2  0  0  0
++         0  0  0  0  0  0  0  0  0  0  0  0  0  0  0  0  0
++         0  0  0  0  0  0  0  0  0  0  0  0  0  0  0  0  0
++         0  0  0  0  0  0  0  0  0  0  0  0  0  0  0  0  0
%c G  cc GPS ccc cccc cccc cccc cccc ccccc ccccc ccccc ccccc
%c cc cc ccc ccc cccc cccc cccc cccc ccccc ccccc ccccc ccccc
%f  1.2500000  1.025000000  0.00000000000  0.000000000000000
%f  0.0000000  0.000000000  0.00000000000  0.000000000000000
%i    0    0    0    0      0      0      0      0         0
%i    0    0    0    0      0      0      0      0         0
/* FINAL ORBIT COMBINATION FROM WEIGHTED AVERAGE OF:        
/* cod emr esa gfz grg jpl mit ngs sio                      
/* REFERENCED TO IGS TIME (IGST) AND TO WEIGHTED MEAN POLE: 
/* PCV:IGS08_1734 OL/AL:FES2004  NONE     Y  ORB:CMB CLK:CMB
*  2013  3 31 11 15  0.00000000
PG01   2288.895646  15134.777813 -21719.934199     12.003938  7  2  6 134       
PG02  19731.084061 -14000.425618  10538.175131    424.940273  9  5  5 117       
PG03  -8932.740200  23172.107084   8590.741091    187.955087  7  5    121       
PG04  25952.679116  -6229.322398  -1474.377014    176.948018  3  6  4  81       
PG05   7976.385876 -13569.995417  21348.860254   -389.953092  5  3    126       
PG06 -13543.542259  18238.837593  13555.216316    292.911216  6  5  2 124       
PG07  18096.054648   7874.392902  17955.212905    197.373413  8  7  4 116       
PG08  24829.273706   2464.066109  10032.279339      5.398490  7  5  4  87       
PG09  21397.644439 -12808.922181  -9745.722857    230.728518  7  5  7 110       
PG10  20055.333054   2662.391531  17126.131241    -75.168898  5  6  3 105       
PG11  -3220.299633  19455.760231 -18114.623829   -367.767806  6  4  4 109       
PG12  -8207.564487 -21483.844041 -13494.621742    125.812070  7  7  6 123       
PG13   6566.301477  17816.956510  18377.728011    132.987804  6  6  4 115       
PG14 -15714.921794   1850.929419 -21114.370278    221.058347  9  4  5 121       
PG15   3401.804095 -25992.212580  -3336.128030   -113.517243  5  4  6 119       
PG16  -8945.041355  11842.924501  21989.361586   -252.616811  5  5  2 134       
PG17  15913.132138  -2896.276908 -20804.672920     34.728147  9  6  7 119       
PG18 -21256.125892 -15155.029300  -5425.372322    246.555691  8  3  3  91       
PG19  -8219.695390  24999.843215   -915.892132   -360.941347  8  5  3 124       
PG20  11246.656040  21306.745519 -11438.347442     90.701607  6  3  7 130       
PG21 -21476.433333  -5898.536104  15413.301764   -289.222909  8  4  3 120       
PG22 -21344.529059  -5472.411877 -14737.983071    162.839312  7  4  4 134       
PG23   2116.439178  23624.099102  11606.640367     99.723411  5  6  6 132       
PG24   1872.244995 -15969.935447 -21142.243942     -3.650984  8  6  7 127       
PG25 -17109.597003 -20043.197578  -3747.401749     82.862163  5  3  7 108       
PG26  12831.521691 -21698.452403   7136.820318    -45.545607  6  2  3 112       
PG27 -19257.278780  -1911.556953  18136.750205 999999.999999
PG28  20791.234510  10571.904505 -12288.655573    245.762800  9  7  3 118       
PG29  -7723.888438 -17790.959124  18222.042358    421.990509  7  4  6 138       
PG31 -25524.583712   7717.440289   1781.831135    308.744294  8  2  5 131       
PG32   2587.580974  20920.688500 -16321.566196   -547.149762  6  4  6 123       
*  2013  3 31 11 30  0.00000000
PG01    -69.087658  15837.498332 -21328.771624     12.006887  6  3  6 132       
PG02  20830.889166 -14034.704104   7977.861992    424.941933  9  5  5 115       
PG03  -9161.734696  21948.638331  11080.194034    187.959444  6  5  1 124       
PG04  25760.548123  -5859.907067  -4242.691500    176.958244  4  5  3  86       
PG05   9818.479925 -11929.022643  21572.236151   -389.954305  6  3  1 126       
PG06 -13530.471246  16547.016378  15628.772887    292.897717  6  5  2 121       
PG07  16089.078627   8565.364616  19463.015782    197.377393  8  7  3 121       
PG08  23616.407060   2792.002116  12532.428326      5.400222  7  5  5  99       
PG09  22294.589731 -12927.045624  -7061.784258    230.730199  7  4  7 120       
PG10  21304.626175   4097.682698  15303.805795    -75.169843  5  6  2 102       
PG11  -4974.002097  20342.144210 -16623.085691   -367.771264  5  4  4 108       
PG12  -6932.738515 -20423.965193 -15665.426843    125.814184  7  7  6 134       
PG13   5812.888944  19704.096117  16625.390725    132.984620  6  7  5 112       
PG14 -15054.787340   -547.729413 -21669.685810    221.058399  9  2  5 123       
PG15   3767.055750 -26145.625479   -516.403813   -113.518336  6  5  6 123       
PG16 -10732.724717  10066.063712  22104.084925   -252.616978  5  6  2 133       
PG17  15349.318067   -495.932579 -21429.401318     34.724761  9  6  7 124       
PG18 -21413.359783 -15732.131885  -2707.859762    246.557929  8  4  4  78       
PG19  -8470.128054  24846.746068   1966.226394   -360.944229  7  6  3 128       
PG20   9981.068167  20613.961467 -13688.429212     90.703538  5  4  7 136       
PG21 -19845.715989  -6596.991220  17225.868329   -289.225007  8  4  3 119       
PG22 -22337.446751  -6751.688029 -12623.204124    162.840216  7  4  3 129       
PG23   1590.331075  24721.610322   9087.810515     99.720446  6  6  6 133       
PG24   4151.277870 -16625.782114 -20291.234588     -3.651555  7  6  6 123       
PG25 -16538.219431 -19808.209908  -6540.397708     82.865300  5  4  7 115       
PG26  12722.028269 -20621.991935   9819.877229    -45.532313  6  3  4 113       
PG27 -20628.349648  -3357.310295  16362.712986 999999.999999
PG28  21604.367561  11644.738596  -9795.305408    245.765905  9  7  2 111       
PG29  -7067.243823 -19657.439177  16486.437042    421.993618  6  3  6 135       
PG31 -25592.805865   7552.965206  -1096.070516    308.745536  9  3  5 126       
PG32   1142.275817  19567.598666 -18013.755451   -547.152228  6  3  6 122       
*  2013  3 31 11 45  0.00000000
PG01  -2327.303800  16639.075105 -20570.846124     12.009812  6  4  5 129       
PG02  21652.358350 -14008.095305   5277.033657    424.943812 10  6  5 120       
PG03  -9444.565554  20460.993404  13371.839052    187.963555  6  5  2 121       
PG04  25301.236380  -5374.094635  -6939.599304    176.967766  4  4  3  84       
PG05  11742.783650 -10380.789462  21423.338525   -389.955576  6  3  2 129       
PG06 -13576.812337  14640.813220  17430.913332    292.883287  6  6  3 123       
PG07  13978.844217   9417.939271  20639.830774    197.381401  7  7  3 121       
PG08  22164.934533   3260.643390  14824.494873      5.399534  6  5  5 104       
PG09  22898.830927 -12980.699293  -4258.529433    230.731893  7  3  7 109       
PG10  22452.890212   5322.379540  13217.773493    -75.170096  5  5  2 107       
PG11  -6550.977891  21191.340601 -14851.127621   -367.774640  4  3  5 107       
PG12  -5425.192102 -19286.736748 -17569.564923    125.816140  7  8  6 131       
PG13   5219.622486  21419.917413  14582.652490    132.981732  5  7  5 118       
PG14 -14515.078613  -3017.996937 -21844.977389    221.058140  8  2  5 124       
PG15   4082.146242 -25998.508781   2312.344534   -113.519450  7  6  6 133       
PG16 -12607.872601   8399.687910  21838.205944   -252.617148  6  6  2 129       
PG17  14901.495766   1977.517418 -21677.139451     34.721652  9  6  8 127       
PG18 -21362.134293 -16103.361695     55.524396    246.559909  8  5  4  83       
PG19  -8647.233961  24388.874951   4813.582921   -360.946998  7  6  3 132       
PG20   8492.404334  19840.518195 -15706.144975     90.705191  3  4  7 138       
PG21 -18079.536309  -7440.000528  18759.145019   -289.226756  7  4  2 131       
PG22 -23194.701166  -7821.709928 -10290.446984    162.841033  7  4  3 123       
PG23   1169.923481  25553.254819   6409.497597     99.717066  6  6  6 133       
PG24   6285.490386 -17356.740495 -19091.027386     -3.653329  7  6  6 121       
PG25 -15713.391549 -19411.175774  -9221.590972     82.868375  5  5  6 114       
PG26  12598.580018 -19246.446499  12325.716742    -45.518843  6  2  3 122       
PG27 -21907.798114  -4585.367365  14306.536835 999999.999999
PG28  22257.037623  12467.639355  -7130.726573    245.768965  9  7  2 124       
PG29  -6553.761298 -21348.642094  14468.746968    421.997049  6  4  7 136       
PG31 -25365.870812   7282.526590  -3955.396588    308.747183  9  4  5 124       
PG32   -498.624886  18166.716697 -19398.059985   -547.154504  6  3  6 128       
EOF
